{
  "norad_id": 65506,
  "name": "STARLINK-35184",
  "history": [
    {
      "epoch": "2026-03-28T18:08:23.362080",
      "apogee_km": 475.77020085707136,
      "perigee_km": 474.61596300467227,
      "latitude_deg": -52.271106400726275,
      "longitude_deg": 83.15929120010696,
      "semi_major_axis_km": 6853.3300819308715,
      "eccentricity": 8.421e-05,
      "inclination_deg": 53.1591,
      "raan_deg": 182.1201,
      "arg_perigee_deg": 60.1912,
      "mean_anomaly_deg": 299.9172,
      "mean_motion_rev_day": 15.30207364
    }
  ]
}