{"fetched_at":"2026-03-30T06:02:59Z","count":15439,"tles":[{"name":"STARLINK-35184","line1":"1 65506U 25198Q   26087.75582595  .00025563  00000+0  87205-3 0  9991","line2":"2 65506  53.1591 182.1201 0000842  60.1912 299.9172 15.30207364 31549","category":"Starlink"}]}